{"type": "FeatureCollection", "features": [ {"type": "Feature", "properties": {"norad_id": 37330, "name": "COSMOS 2251 DEB", "group": "cosmos-2251-debris", "lat": 9.624466613358399, "lon": -51.76673608186793, "alt_km": 729.3458635667293, "timestamp": "2025-12-07T07:31:36.695650+00:00", "meta": {"OBJECT_NAME": "COSMOS 2251 DEB", "OBJECT_ID": "1993-036BKW", "EPOCH": "2025-12-05T14:21:14.190624", "MEAN_MOTION": 14.59506659, "ECCENTRICITY": 0.00573025, "INCLINATION": 74.0171, "RA_OF_ASC_NODE": 308.721, "ARG_OF_PERICENTER": 159.2705, "MEAN_ANOMALY": 201.0804, "EPHEMERIS_TYPE": 0, "CLASSIFICATION_TYPE": "U", "NORAD_CAT_ID": 37330, "ELEMENT_SET_NO": 999, "REV_AT_EPOCH": 86264, "BSTAR": 0.00055225594, "MEAN_MOTION_DOT": 2.653e-05, "MEAN_MOTION_DDOT": 0}, "tle": {"line1": "1 37330U 93036BKW 25339.59808091  .00002653  00000+0  55226-3 0  9997", "line2": "2 37330  74.0171 308.7210 0057302 159.2705 201.0804 14.59506659862646"}}, "geometry": {"type": "Point", "coordinates": [-51.76673608186793, 9.624466613358399]}}, {"type": "Feature", "properties": {"norad_id": 37331, "name": "COSMOS 2251 DEB", "group": "cosmos-2251-debris", "lat": -65.93828539839943, "lon": -62.454566007498855, "alt_km": 818.5724133289486, "timestamp": "2025-12-07T07:31:36.695660+00:00", "meta": {"OBJECT_NAME": "COSMOS 2251 DEB", "OBJECT_ID": "1993-036BKX", "EPOCH": "2025-12-01T01:26:56.105376", "MEAN_MOTION": 14.34963315, "ECCENTRICITY": 0.0055446, "INCLINATION": 74.0748, "RA_OF_ASC_NODE": 89.2257, "ARG_OF_PERICENTER": 107.2854, "MEAN_ANOMALY": 253.4376, "EPHEMERIS_TYPE": 0, "CLASSIFICATION_TYPE": "U", "NORAD_CAT_ID": 37331, "ELEMENT_SET_NO": 999, "REV_AT_EPOCH": 84592, "BSTAR": 0.00070853607, "MEAN_MOTION_DOT": 2.027e-05, "MEAN_MOTION_DDOT": 0}, "tle": {"line1": "1 37331U 93036BKX 25335.06037159  .00002027  00000+0  70854-3 0  9994", "line2": "2 37331  74.0748  89.2257 0055446 107.2854 253.4376 14.34963315845920"}}, "geometry": {"type": "Point", "coordinates": [-62.454566007498855, -65.93828539839943]}}, {"type": "Feature", "properties": {"norad_id": 37336, "name": "COSMOS 2251 DEB", "group": "cosmos-2251-debris", "lat": -73.0550575720807, "lon": -88.78836061346371, "alt_km": 806.3323676204172, "timestamp": "2025-12-07T07:31:36.695670+00:00", "meta": {"OBJECT_NAME": "COSMOS 2251 DEB", "OBJECT_ID": "1993-036BLC", "EPOCH": "2025-12-01T07:48:14.136768", "MEAN_MOTION": 14.32750931, "ECCENTRICITY": 0.00286304, "INCLINATION": 74.0414, "RA_OF_ASC_NODE": 352.0528, "ARG_OF_PERICENTER": 73.4193, "MEAN_ANOMALY": 287.0099, "EPHEMERIS_TYPE": 0, "CLASSIFICATION_TYPE": "U", "NORAD_CAT_ID": 37336, "ELEMENT_SET_NO": 999, "REV_AT_EPOCH": 64956, "BSTAR": 8.422431e-05, "MEAN_MOTION_DOT": 2.05e-06, "MEAN_MOTION_DDOT": 0}, "tle": {"line1": "1 37336U 93036BLC 25335.32516362  .00000205  00000+0  84224-4 0  9999", "line2": "2 37336  74.0414 352.0528 0028630  73.4193 287.0099 14.32750931649565"}}, "geometry": {"type": "Point", "coordinates": [-88.78836061346371, -73.0550575720807]}}, {"type": "Feature", "properties": {"norad_id": 37340, "name": "COSMOS 2251 DEB", "group": "cosmos-2251-debris", "lat": 51.91607721443682, "lon": -51.41992246414409, "alt_km": 752.9073890729796, "timestamp": "2025-12-07T07:31:36.695681+00:00", "meta": {"OBJECT_NAME": "COSMOS 2251 DEB", "OBJECT_ID": "1993-036BLG", "EPOCH": "2025-12-05T05:08:42.934848", "MEAN_MOTION": 14.36908075, "ECCENTRICITY": 0.00174259, "INCLINATION": 74.0249, "RA_OF_ASC_NODE": 290.9993, "ARG_OF_PERICENTER": 27.9023, "MEAN_ANOMALY": 332.3061, "EPHEMERIS_TYPE": 0, "CLASSIFICATION_TYPE": "U", "NORAD_CAT_ID": 37340, "ELEMENT_SET_NO": 999, "REV_AT_EPOCH": 83959, "BSTAR": 0.00037521661, "MEAN_MOTION_DOT": 1.086e-05, "MEAN_MOTION_DDOT": 0}, "tle": {"line1": "1 37340U 93036BLG 25339.21438582  .00001086  00000+0  37522-3 0  9999", "line2": "2 37340  74.0249 290.9993 0017425  27.9023 332.3061 14.36908075839593"}}, "geometry": {"type": "Point", "coordinates": [-51.41992246414409, 51.91607721443682]}}, {"type": "Feature", "properties": {"norad_id": 37483, "name": "COSMOS 2251 DEB", "group": "cosmos-2251-debris", "lat": 36.903594941488485, "lon": 165.92396717192588, "alt_km": 691.1521263786635, "timestamp": "2025-12-07T07:31:36.695691+00:00", "meta": {"OBJECT_NAME": "COSMOS 2251 DEB", "OBJECT_ID": "1993-036BLL", "EPOCH": "2025-12-06T21:22:19.313184", "MEAN_MOTION": 14.43543029, "ECCENTRICITY": 0.00928393, "INCLINATION": 73.9727, "RA_OF_ASC_NODE": 154.2477, "ARG_OF_PERICENTER": 2.0807, "MEAN_ANOMALY": 358.0716, "EPHEMERIS_TYPE": 0, "CLASSIFICATION_TYPE": "U", "NORAD_CAT_ID": 37483, "ELEMENT_SET_NO": 999, "REV_AT_EPOCH": 65195, "BSTAR": 0.00034556267, "MEAN_MOTION_DOT": 1.204e-05, "MEAN_MOTION_DDOT": 0}, "tle": {"line1": "1 37483U 93036BLL 25340.89050131  .00001204  00000+0  34556-3 0  9999", "line2": "2 37483  73.9727 154.2477 0092839   2.0807 358.0716 14.43543029651951"}}, "geometry": {"type": "Point", "coordinates": [165.92396717192588, 36.903594941488485]}}, {"type": "Feature", "properties": {"norad_id": 37484, "name": "COSMOS 2251 DEB", "group": "cosmos-2251-debris", "lat": -36.31229414207857, "lon": -153.69298519092536, "alt_km": 747.7799739294151, "timestamp": "2025-12-07T07:31:36.695700+00:00", "meta": {"OBJECT_NAME": "COSMOS 2251 DEB", "OBJECT_ID": "1993-036BLM", "EPOCH": "2025-12-06T08:56:33.254304", "MEAN_MOTION": 14.41742642, "ECCENTRICITY": 0.00400909, "INCLINATION": 73.8227, "RA_OF_ASC_NODE": 220.3904, "ARG_OF_PERICENTER": 256.1563, "MEAN_ANOMALY": 223.2643, "EPHEMERIS_TYPE": 0, "CLASSIFICATION_TYPE": "U", "NORAD_CAT_ID": 37484, "ELEMENT_SET_NO": 999, "REV_AT_EPOCH": 65287, "BSTAR": 0.0013292575, "MEAN_MOTION_DOT": 4.354e-05, "MEAN_MOTION_DDOT": 0}, "tle": {"line1": "1 37484U 93036BLM 25340.37260711  .00004354  00000+0  13293-2 0  9993", "line2": "2 37484  73.8227 220.3904 0040090 256.1563 223.2643 14.41742642652873"}}, "geometry": {"type": "Point", "coordinates": [-153.69298519092536, -36.31229414207857]}}, {"type": "Feature", "properties": {"norad_id": 37486, "name": "COSMOS 2251 DEB", "group": "cosmos-2251-debris", "lat": 55.0931815949324, "lon": 149.2202396666413, "alt_km": 770.1977237023857, "timestamp": "2025-12-07T07:31:36.695710+00:00", "meta": {"OBJECT_NAME": "COSMOS 2251 DEB", "OBJECT_ID": "1993-036BLP", "EPOCH": "2025-12-05T16:15:13.753728", "MEAN_MOTION": 14.1323143, "ECCENTRICITY": 0.02290372, "INCLINATION": 73.6892, "RA_OF_ASC_NODE": 127.3665, "ARG_OF_PERICENTER": 356.725, "MEAN_ANOMALY": 17.5084, "EPHEMERIS_TYPE": 0, "CLASSIFICATION_TYPE": "U", "NORAD_CAT_ID": 37486, "ELEMENT_SET_NO": 999, "REV_AT_EPOCH": 63270, "BSTAR": 0.0031719607, "MEAN_MOTION_DOT": 7.607e-05, "MEAN_MOTION_DDOT": 0}, "tle": {"line1": "1 37486U 93036BLP 25339.67724252  .00007607  00000+0  31720-2 0  9990", "line2": "2 37486  73.6892 127.3665 0229037 356.7250  17.5084 14.13231430632701"}}, "geometry": {"type": "Point", "coordinates": [149.2202396666413, 55.0931815949324]}}, {"type": "Feature", "properties": {"norad_id": 37487, "name": "COSMOS 2251 DEB", "group": "cosmos-2251-debris", "lat": -73.8570394125327, "lon": 116.72874375180575, "alt_km": 645.6464883846766, "timestamp": "2025-12-07T07:31:36.695721+00:00", "meta": {"OBJECT_NAME": "COSMOS 2251 DEB", "OBJECT_ID": "1993-036BLQ", "EPOCH": "2025-12-06T07:36:14.773824", "MEAN_MOTION": 14.80609361, "ECCENTRICITY": 0.00252454, "INCLINATION": 73.9019, "RA_OF_ASC_NODE": 204.8571, "ARG_OF_PERICENTER": 44.15, "MEAN_ANOMALY": 316.1684, "EPHEMERIS_TYPE": 0, "CLASSIFICATION_TYPE": "U", "NORAD_CAT_ID": 37487, "ELEMENT_SET_NO": 999, "REV_AT_EPOCH": 81150, "BSTAR": 0.0050036629, "MEAN_MOTION_DOT": 0.00038806, "MEAN_MOTION_DDOT": 0}, "tle": {"line1": "1 37487U 93036BLQ 25340.31683766  .00038806  00000+0  50037-2 0  9995", "line2": "2 37487  73.9019 204.8571 0025245  44.1500 316.1684 14.80609361811501"}}, "geometry": {"type": "Point", "coordinates": [116.72874375180575, -73.8570394125327]}}, {"type": "Feature", "properties": {"norad_id": 37491, "name": "COSMOS 2251 DEB", "group": "cosmos-2251-debris", "lat": -62.99628526172931, "lon": -111.31575776599472, "alt_km": 760.847158294694, "timestamp": "2025-12-07T07:31:36.695731+00:00", "meta": {"OBJECT_NAME": "COSMOS 2251 DEB", "OBJECT_ID": "1993-036BLU", "EPOCH": "2025-12-03T14:48:31.500000", "MEAN_MOTION": 13.75236476, "ECCENTRICITY": 0.03180692, "INCLINATION": 73.9058, "RA_OF_ASC_NODE": 289.3863, "ARG_OF_PERICENTER": 284.0782, "MEAN_ANOMALY": 72.518, "EPHEMERIS_TYPE": 0, "CLASSIFICATION_TYPE": "U", "NORAD_CAT_ID": 37491, "ELEMENT_SET_NO": 999, "REV_AT_EPOCH": 55621, "BSTAR": 0.0021635807, "MEAN_MOTION_DOT": 2.973e-05, "MEAN_MOTION_DDOT": 0}, "tle": {"line1": "1 37491U 93036BLU 25337.61703125  .00002973  00000+0  21636-2 0  9990", "line2": "2 37491  73.9058 289.3863 0318069 284.0782  72.5180 13.75236476556211"}}, "geometry": {"type": "Point", "coordinates": [-111.31575776599472, -62.99628526172931]}}, {"type": "Feature", "properties": {"norad_id": 37498, "name": "COSMOS 2251 DEB", "group": "cosmos-2251-debris", "lat": -45.137603304669575, "lon": 30.871750300131872, "alt_km": 708.1278729803644, "timestamp": "2025-12-07T07:31:36.695740+00:00", "meta": {"OBJECT_NAME": "COSMOS 2251 DEB", "OBJECT_ID": "1993-036BMB", "EPOCH": "2025-12-02T07:38:53.705760", "MEAN_MOTION": 14.54689112, "ECCENTRICITY": 0.00134342, "INCLINATION": 74.038, "RA_OF_ASC_NODE": 203.6034, "ARG_OF_PERICENTER": 264.7495, "MEAN_ANOMALY": 95.2135, "EPHEMERIS_TYPE": 0, "CLASSIFICATION_TYPE": "U", "NORAD_CAT_ID": 37498, "ELEMENT_SET_NO": 999, "REV_AT_EPOCH": 65203, "BSTAR": 0.00080152077, "MEAN_MOTION_DOT": 3.406e-05, "MEAN_MOTION_DDOT": 0}, "tle": {"line1": "1 37498U 93036BMB 25336.31867715  .00003406  00000+0  80152-3 0  9990", "line2": "2 37498  74.0380 203.6034 0013434 264.7495  95.2135 14.54689112652037"}}, "geometry": {"type": "Point", "coordinates": [30.871750300131872, -45.137603304669575]}}]}